[{"OBJECT_NAME":"ONEWEB-0519","OBJECT_ID":"2022-138AA","EPOCH":"2026-03-09T18:36:08.004096","MEAN_MOTION":13.19725885,"ECCENTRICITY":0.00014682,"INCLINATION":87.9235,"RA_OF_ASC_NODE":324.7649,"ARG_OF_PERICENTER":79.5494,"MEAN_ANOMALY":280.5804,"EPHEMERIS_TYPE":0,"CLASSIFICATION_TYPE":"U","NORAD_CAT_ID":54137,"ELEMENT_SET_NO":999,"REV_AT_EPOCH":16372,"BSTAR":-0.00024916148,"MEAN_MOTION_DOT":-8.7e-7,"MEAN_MOTION_DDOT":0},{"OBJECT_NAME":"SL-14 R\/B","OBJECT_ID":"1988-064B","EPOCH":"2026-03-09T22:26:58.344864","MEAN_MOTION":13.17272582,"ECCENTRICITY":0.00165949,"INCLINATION":82.5463,"RA_OF_ASC_NODE":44.0722,"ARG_OF_PERICENTER":124.4622,"MEAN_ANOMALY":289.5659,"EPHEMERIS_TYPE":0,"CLASSIFICATION_TYPE":"U","NORAD_CAT_ID":19337,"ELEMENT_SET_NO":999,"REV_AT_EPOCH":80867,"BSTAR":0.00033527684,"MEAN_MOTION_DOT":1.42e-6,"MEAN_MOTION_DDOT":0}]
